{
"type": "FeatureCollection",
"name": "махачкала_aoi",
"crs": { "type": "name", "properties": { "name": "urn:ogc:def:crs:EPSG::32638" } },
"features": [
{ "type": "Feature", "properties": { "name": "Махачкала AOI" }, "geometry": { "type": "Polygon", "coordinates": [ [ [ 696099.62095919100102, 4746951.78624511975795 ], [ 724880.357024576282129, 4742273.766637018881738 ], [ 727859.077689355122857, 4775725.526186994276941 ], [ 707344.51200351153966, 4780628.924984975717962 ], [ 697190.36887925863266, 4765877.796626092866063 ], [ 696099.62095919100102, 4746951.78624511975795 ] ] ] } }
]
}
